NORAD_CAT_ID,OBJECT_NAME,OBJECT_TYPE,EPOCH,MEAN_MOTION,ECCENTRICITY,INCLINATION,RA_OF_ASC_NODE,ARG_OF_PERICENTER,MEAN_ANOMALY,BSTAR,MEAN_MOTION_DOT,MEAN_MOTION_DDOT,TLE_LINE0,TLE_LINE1,TLE_LINE2,SEMIMAJOR_AXIS,PERIOD,APOGEE,PERIGEE,DECAYED
53402.0,STARLINK-4499,PAYLOAD,2023-05-12 02:44:37,15.08823285,0.0001354,53.2184,79.533,100.9628,259.1516,0.00032098,4.822e-05,0.0,0 STARLINK-4499,1 53402U 22097Q   23132.11431763  .00004822  00000-0  32098-3 0  9992,2 53402  53.2184  79.5330 0001354 100.9628 259.1516 15.08823285 42631,6917.931,95.439,540.733,538.86,0.0
53402.0,STARLINK-4499,PAYLOAD,2023-05-13 02:35:22,15.08854154,0.0001376,53.218,75.0713,102.2059,257.9088,0.0002134,3.111e-05,0.0,0 STARLINK-4499,1 53402U 22097Q   23133.10790030  .00003111  00000-0  21340-3 0  9995,2 53402  53.2180  75.0713 0001376 102.2059 257.9088 15.08854154 42291,6917.837,95.437,540.654,538.75,0.0
53402.0,STARLINK-4499,PAYLOAD,2023-05-14 02:26:10,15.08843652,0.0001216,53.2182,70.6123,86.2885,273.8246,-1.3713e-05,-5.06e-06,0.0,0 STARLINK-4499,1 53402U 22097Q   23134.10151166 -.00000506  00000-0 -13713-4 0  9990,2 53402  53.2182  70.6123 0001216  86.2885 273.8246 15.08843652 42441,6917.869,95.437,540.575,538.893,0.0
53402.0,STARLINK-4499,PAYLOAD,2023-05-15 11:49:15,15.08847859,0.0001064,53.2177,64.3663,91.1127,268.9987,-4.9624e-05,-1.078e-05,0.0,0 STARLINK-4499,1 53402U 22097Q   23135.49254524 -.00001078  00000-0 -49624-4 0  9990,2 53402  53.2177  64.3663 0001064  91.1127 268.9987 15.08847859 42652,6917.856,95.437,540.457,538.985,0.0
53402.0,STARLINK-4499,PAYLOAD,2023-05-16 00:32:22,15.08829974,0.0001073,53.2186,61.9953,96.3352,263.7762,1.1839e-05,-9.9e-07,0.0,0 STARLINK-4499,1 53402U 22097Q   23136.02247945 -.00000099  00000-0  11839-4 0  9997,2 53402  53.2186  61.9953 0001073  96.3352 263.7762 15.08829974 42735,6917.911,95.438,540.518,539.034,0.0
53402.0,STARLINK-4499,PAYLOAD,2023-05-16 18:01:36,15.08837813,0.000101,53.2186,58.7184,80.9067,279.204,-1.0778e-05,-4.59e-06,0.0,0 STARLINK-4499,1 53402U 22097Q   23136.75111914 -.00000459  00000-0 -10778-4 0  9995,2 53402  53.2186  58.7184 0001010  80.9067 279.2040 15.08837813 43337,6917.887,95.438,540.451,539.053,0.0
53402.0,STARLINK-4499,PAYLOAD,2023-05-17 01:58:32,15.0884122,0.0001071,53.2189,57.234,97.6149,262.4965,2.6887e-05,1.4e-06,0.0,0 STARLINK-4499,1 53402U 22097Q   23137.08231553  .00000140  00000-0  26887-4 0  9997,2 53402  53.2189  57.2340 0001071  97.6149 262.4965 15.08841220 42898,6917.877,95.437,540.483,539.001,0.0
53402.0,STARLINK-4499,PAYLOAD,2023-05-17 05:09:17,15.08847424,0.0001116,53.2188,56.6373,83.0849,277.027,7.4501e-05,8.98e-06,0.0,0 STARLINK-4499,1 53402U 22097Q   23137.21479061  .00000898  00000-0  74501-4 0  9996,2 53402  53.2188  56.6373 0001116  83.0849 277.0270 15.08847424 42918,6917.858,95.437,540.495,538.951,0.0
53402.0,STARLINK-4499,PAYLOAD,2023-05-18 01:49:19,15.08833457,0.0001259,53.2187,52.7691,73.0612,287.0518,0.00017551,2.506e-05,0.0,0 STARLINK-4499,1 53402U 22097Q   23138.07591995  .00002506  00000-0  17551-3 0  9991,2 53402  53.2187  52.7691 0001259  73.0612 287.0518 15.08833457 43044,6917.9,95.438,540.636,538.894,0.0
53402.0,STARLINK-4499,PAYLOAD,2023-05-19 03:15:29,15.08843887,0.0001113,53.2178,48.0122,92.5996,267.5123,5.1398e-05,5.3e-06,0.0,0 STARLINK-4499,1 53402U 22097Q   23139.13575659  .00000530  00000-0  51398-4 0  9991,2 53402  53.2178  48.0122 0001113  92.5996 267.5123 15.08843887 43202,6917.869,95.437,540.503,538.964,0.0
53402.0,STARLINK-4499,PAYLOAD,2023-05-19 22:20:06,15.08843008,0.0001118,53.2173,44.4443,129.4885,230.6206,0.00012413,1.688e-05,0.0,0 STARLINK-4499,1 53402U 22097Q   23139.93063331  .00001688  00000-0  12413-3 0  9997,2 53402  53.2173  44.4443 0001118 129.4885 230.6206 15.08843008 43810,6917.871,95.437,540.51,538.963,0.0
53402.0,STARLINK-4499,PAYLOAD,2023-05-20 20:35:30,15.08849696,0.0001532,53.2177,40.2807,79.9852,280.1313,0.00010195,1.335e-05,0.0,0 STARLINK-4499,1 53402U 22097Q   23140.85799116  .00001335  00000-0  10195-3 0  9991,2 53402  53.2177  40.2807 0001532  79.9852 280.1313 15.08849696 43958,6917.851,95.437,540.776,538.656,0.0
53402.0,STARLINK-4499,PAYLOAD,2023-05-21 02:57:01,15.08860818,0.0001207,53.2182,39.0916,91.8406,268.2724,0.00020001,2.898e-05,0.0,0 STARLINK-4499,1 53402U 22097Q   23141.12293866  .00002898  00000-0  20001-3 0  9995,2 53402  53.2182  39.0916 0001207  91.8406 268.2724 15.08860818 43501,6917.817,95.436,540.517,538.847,0.0
53402.0,STARLINK-4499,PAYLOAD,2023-05-21 23:37:05,15.08828209,0.0001165,53.2185,35.2252,101.9875,258.1248,-0.00010905,-2.022e-05,0.0,0 STARLINK-4499,1 53402U 22097Q   23141.98409099 -.00002022  00000-0 -10905-3 0  9999,2 53402  53.2185  35.2252 0001165 101.9875 258.1248 15.08828209 43632,6917.916,95.438,540.587,538.975,0.0
53402.0,STARLINK-4499,PAYLOAD,2023-05-22 17:06:19,15.0884494,0.0001113,53.2182,31.9553,97.7569,262.355,-4.9431e-05,-1.075e-05,0.0,0 STARLINK-4499,1 53402U 22097Q   23142.71272287 -.00001075  00000-0 -49431-4 0  9992,2 53402  53.2182  31.9553 0001113  97.7569 262.3550 15.08844940 43746,6917.865,95.437,540.5,538.96,0.0
53402.0,STARLINK-4499,PAYLOAD,2023-05-23 02:38:37,15.08855615,0.0001202,53.2185,30.1696,100.5734,259.5394,5.875e-05,6.48e-06,0.0,0 STARLINK-4499,1 53402U 22097Q   23143.11015227  .00000648  00000-0  58750-4 0  9993,2 53402  53.2185  30.1696 0001202 100.5734 259.5394 15.08855615 43806,6917.833,95.437,540.529,538.866,0.0
53402.0,STARLINK-4499,PAYLOAD,2023-05-23 20:07:52,15.08836473,0.0001978,53.2164,26.895,130.7353,229.3811,0.000223,3.262e-05,0.0,0 STARLINK-4499,1 53402U 22097Q   23143.83880558  .00003262  00000-0  22300-3 0  9995,2 53402  53.2164  26.8950 0001978 130.7353 229.3811 15.08836473 44407,6917.891,95.438,541.125,538.388,0.0
53402.0,STARLINK-4499,PAYLOAD,2023-05-24 02:29:25,15.08839146,0.0001062,53.2168,25.7119,98.12,261.9912,0.00019584,2.83e-05,0.0,0 STARLINK-4499,1 53402U 22097Q   23144.10376683  .00002830  00000-0  19584-3 0  9995,2 53402  53.2168  25.7119 0001062  98.1200 261.9912 15.08839146 43951,6917.883,95.438,540.483,539.013,0.0
53402.0,STARLINK-4499,PAYLOAD,2023-05-25 21:24:50,15.08841581,0.0001099,53.216,17.6829,100.0819,260.0297,9.0224e-05,1.148e-05,0.0,0 STARLINK-4499,1 53402U 22097Q   23145.89224646  .00001148  00000-0  90224-4 0  9995,2 53402  53.2160  17.6829 0001099 100.0819 260.0297 15.08841581 44717,6917.876,95.437,540.501,538.98,0.0
53402.0,STARLINK-4499,PAYLOAD,2023-05-26 00:35:36,15.08846443,0.0001116,53.216,17.0882,102.0287,258.0831,0.00015558,2.19e-05,0.0,0 STARLINK-4499,1 53402U 22097Q   23146.02472374  .00002190  00000-0  15558-3 0  9998,2 53402  53.2160  17.0882 0001116 102.0287 258.0831 15.08846443 44242,6917.861,95.437,540.498,538.954,0.0
53402.0,STARLINK-4499,PAYLOAD,2023-05-26 21:15:37,15.08835758,0.0001352,53.2178,13.2165,87.098,273.0167,-3.1503e-05,-7.89e-06,0.0,0 STARLINK-4499,1 53402U 22097Q   23146.88585218 -.00000789  00000-0 -31503-4 0  9997,2 53402  53.2178  13.2165 0001352  87.0980 273.0167 15.08835758 44861,6917.893,95.438,540.694,538.823,0.0
53402.0,STARLINK-4499,PAYLOAD,2023-05-26 22:51:00,15.0883776,0.0001285,53.2186,12.9195,85.9909,274.123,7.6369e-06,-1.66e-06,0.0,0 STARLINK-4499,1 53402U 22097Q   23146.95209466 -.00000166  00000-0  76369-5 0  9991,2 53402  53.2186  12.9195 0001285  85.9909 274.1230 15.08837760 44387,6917.887,95.438,540.641,538.863,0.0
53402.0,STARLINK-4499,PAYLOAD,2023-05-27 21:06:24,15.08849326,0.0001172,53.217,8.761,90.4536,269.659,9.2129e-05,1.179e-05,0.0,0 STARLINK-4499,1 53402U 22097Q   23147.87944448  .00001179  00000-0  92129-4 0  9994,2 53402  53.2170   8.7610 0001172  90.4536 269.6590 15.08849326 44522,6917.852,95.437,540.528,538.906,0.0
53402.0,STARLINK-4499,PAYLOAD,2023-05-28 20:57:10,15.08849124,0.0001078,53.2169,4.3015,85.6798,274.4318,0.00015627,2.201e-05,0.0,0 STARLINK-4499,1 53402U 22097Q   23148.87304230  .00002201  00000-0  15627-3 0  9998,2 53402  53.2169   4.3015 0001078  85.6798 274.4318 15.08849124 45161,6917.853,95.437,540.463,538.972,0.0
53402.0,STARLINK-4499,PAYLOAD,2023-05-29 00:07:56,15.08851157,0.0001085,53.2169,3.7067,85.1492,274.9624,0.00017099,2.435e-05,0.0,0 STARLINK-4499,1 53402U 22097Q   23149.00552031  .00002435  00000-0  17099-3 0  9992,2 53402  53.2169   3.7067 0001085  85.1492 274.9624 15.08851157 44696,6917.846,95.437,540.462,538.961,0.0
53402.0,STARLINK-4499,PAYLOAD,2023-05-29 14:26:26,15.08837093,0.0001168,53.2174,1.0255,105.5915,254.5206,5.2468e-05,5.47e-06,0.0,0 STARLINK-4499,1 53402U 22097Q   23149.60169277  .00000547  00000-0  52468-4 0  9996,2 53402  53.2174   1.0255 0001168 105.5915 254.5206 15.08837093 45279,6917.889,95.438,540.562,538.946,0.0
53402.0,STARLINK-4499,PAYLOAD,2023-05-29 17:37:12,15.08838343,0.0001109,53.2174,0.4348,97.1757,262.9361,7.5077e-06,-1.68e-06,0.0,0 STARLINK-4499,1 53402U 22097Q   23149.73417172 -.00000168  00000-0  75077-5 0  9992,2 53402  53.2174   0.4348 0001109  97.1757 262.9361 15.08838343 44802,6917.885,95.438,540.518,538.983,0.0
53402.0,STARLINK-4499,PAYLOAD,2023-05-29 20:47:58,15.08838402,0.0001101,53.2167,359.8411,94.3567,265.7551,-3.6774e-06,-3.46e-06,0.0,0 STARLINK-4499,1 53402U 22097Q   23149.86665209 -.00000346  00000-0 -36774-5 0  9992,2 53402  53.2167 359.8411 0001101  94.3567 265.7551 15.08838402 45311,6917.885,95.438,540.512,538.989,0.0
53402.0,STARLINK-4499,PAYLOAD,2023-05-30 14:17:13,15.0884034,0.0001077,53.2171,356.5692,94.5642,265.5473,-6.7729e-06,-3.96e-06,0.0,0 STARLINK-4499,1 53402U 22097Q   23150.59529196 -.00000396  00000-0 -67729-5 0  9997,2 53402  53.2171 356.5692 0001077  94.5642 265.5473 15.08840340 45426,6917.879,95.438,540.489,538.999,0.0
53402.0,STARLINK-4499,PAYLOAD,2023-05-30 19:03:22,15.08843739,0.0001123,53.217,355.6774,94.2261,265.8859,2.5702e-05,1.21e-06,0.0,0 STARLINK-4499,1 53402U 22097Q   23150.79400903  .00000121  00000-0  25702-4 0  9991,2 53402  53.2170 355.6774 0001123  94.2261 265.8859 15.08843739 44966,6917.869,95.437,540.511,538.957,0.0
